{"spkid": "50710943", "covariance": {"epoch": "2457113.5", "elements": [{"label": "e", "units": null, "title": "eccentricity", "value": ".4451022112660598", "name": "e", "sigma": 1.2643396798368e-06}, {"label": "q", "name": "q", "sigma": 1.14840867628618e-06, "title": "perihelion distance", "value": ".636024850850353", "units": "au"}, {"sigma": 5.56680147189762e-05, "name": "tp", "value": "2457143.957870397384", "title": "time of perihelion passage", "units": "TDB", "label": "tp"}, {"label": "node", "units": "deg", "value": "167.7549331389827", "title": "longitude of the ascending node", "sigma": 0.000184403871799941, "name": "om"}, {"sigma": 9.41011138166842e-05, "name": "w", "title": "argument of perihelion", "value": "93.18494988394977", "units": "deg", "label": "peri"}, {"label": "i", "title": "inclination", "value": "4.352596271944742", "units": "deg", "sigma": 2.89731813435121e-05, "name": "i"}], "data": [["1.598554826009823E-12", "-1.451834280744721E-12", "-3.52603239543595E-11", "1.687078150710468E-10", "-3.958344430529831E-11", "-2.758527928048953E-11"], ["-1.451834280744721E-12", "1.318842487769378E-12", "3.256523556814604E-11", "-1.518308740312016E-10", "3.504253247859136E-11", "2.494863523538681E-11"], ["-3.52603239543595E-11", "3.256523556814604E-11", "3.09892786275215E-9", "1.864940665251058E-9", "-2.572071680801295E-9", "2.688408498776884E-10"], ["1.687078150710468E-10", "-1.518308740312016E-10", "1.864940665251058E-9", "3.400478793480923E-8", "-1.522505788539433E-8", "-4.55620032608335E-9"], ["-3.958344430529831E-11", "3.504253247859136E-11", "-2.572071680801295E-9", "-1.522505788539433E-8", "8.855019621540546E-9", "2.015470937090905E-9"], ["-2.758527928048953E-11", "2.494863523538681E-11", "2.688408498776884E-10", "-4.55620032608335E-9", "2.015470937090905E-9", "8.394452371640362E-10"]], "labels": ["e", "q", "tp", "node", "peri", "i"]}, "elements": [{"label": "e", "units": null, "title": "eccentricity", "value": ".4452377651099214", "sigma": "1.2625E-6", "name": "e"}, {"label": "a", "title": "semi-major axis", "value": "1.145911390517017", "units": "au", "name": "a", "sigma": "5.1094E-7"}, {"label": "q", "sigma": "1.1636E-6", "name": "q", "title": "perihelion distance", "value": ".6357083639892179", "units": "au"}, {"units": "deg", "value": "4.348057048760339", "title": "inclination; angle with respect to x-y ecliptic plane", "sigma": "2.91E-5", "name": "i", "label": "i"}, {"value": "167.6618273156356", "title": "longitude of the ascending node", "units": "deg", "sigma": ".00018403", "name": "om", "label": "node"}, {"label": "peri", "units": "deg", "value": "93.22294201140855", "title": "argument of perihelion", "name": "w", "sigma": "9.3627E-5"}, {"units": "deg", "value": "19.96012552625989", "title": "mean anomaly", "sigma": ".002262", "name": "ma", "label": "M"}, {"label": "tp", "sigma": ".0027986", "name": "tp", "units": "TDB", "value": "2461175.658046251256", "title": "time of perihelion passage"}, {"label": "period", "units": "d", "title": "sidereal orbital period", "value": "448.0484522896428", "name": "per", "sigma": ".00029966"}, {"name": "n", "sigma": "5.3739E-7", "units": "deg/d", "value": ".8034845297652686", "title": "mean motion", "label": "n"}, {"sigma": "7.3843E-7", "name": "ad", "value": "1.656114417044816", "title": "aphelion distance", "units": "au", "label": "Q"}], "epoch": "2461200.5"}